{
  "norad_id": 66460,
  "name": "STARLINK-35424",
  "history": [
    {
      "epoch": "2026-03-28T18:05:41.590176",
      "apogee_km": 484.18896180538013,
      "perigee_km": 481.6114073558765,
      "latitude_deg": -34.41331435604701,
      "longitude_deg": 178.37954464019276,
      "semi_major_axis_km": 6861.0371845806285,
      "eccentricity": 0.00018784,
      "inclination_deg": 43.0003,
      "raan_deg": 188.3688,
      "arg_perigee_deg": 281.8826,
      "mean_anomaly_deg": 78.1815,
      "mean_motion_rev_day": 15.27629732
    }
  ]
}