{"fetched_at":"2026-03-30T06:02:59Z","count":15439,"tles":[{"name":"STARLINK-35424","line1":"1 66460U 25262E   26087.75395359  .00041714  00000+0  15145-2 0  9992","line2":"2 66460  43.0003 188.3688 0001878 281.8826  78.1815 15.27629732 21822","category":"Starlink"}]}